[{"OBJECT_NAME":"TIANMU-1 22","OBJECT_ID":"2023-208D","EPOCH":"2026-03-09T22:39:05.738688","MEAN_MOTION":15.29457749,"ECCENTRICITY":0.00031332,"INCLINATION":97.4379,"RA_OF_ASC_NODE":184.9419,"ARG_OF_PERICENTER":351.9312,"MEAN_ANOMALY":8.1877,"EPHEMERIS_TYPE":0,"CLASSIFICATION_TYPE":"U","NORAD_CAT_ID":58663,"ELEMENT_SET_NO":999,"REV_AT_EPOCH":12215,"BSTAR":0.00038239675,"MEAN_MOTION_DOT":0.00010851,"MEAN_MOTION_DDOT":0},{"OBJECT_NAME":"STARLINK-34859","OBJECT_ID":"2025-189AB","EPOCH":"2026-03-09T16:25:26.982048","MEAN_MOTION":15.30202852,"ECCENTRICITY":9.208e-5,"INCLINATION":53.1585,"RA_OF_ASC_NODE":206.9335,"ARG_OF_PERICENTER":89.5242,"MEAN_ANOMALY":270.5864,"EPHEMERIS_TYPE":0,"CLASSIFICATION_TYPE":"U","NORAD_CAT_ID":65348,"ELEMENT_SET_NO":999,"REV_AT_EPOCH":3110,"BSTAR":0.00081203436,"MEAN_MOTION_DOT":0.0002377,"MEAN_MOTION_DDOT":0}]
